QIANFAN-92              
1 66034U 25233B   25317.42833102  .00001358  00000+0  58982-3 0  9996
2 66034  88.9967  65.4070 0016675 127.1145 233.1574 14.23556525  3866
QIANFAN-93              
1 66035U 25233C   25317.49618475  .00001535  00000+0  65138-3 0  9996
2 66035  88.9948  65.3969 0015918 128.1758 232.0871 14.24841785  3877
QIANFAN-94              
1 66036U 25233D   25317.63707552  .00001383  00000+0  59796-3 0  9992
2 66036  88.9962  65.3822 0016089 125.6728 234.5964 14.23791671  3890
QIANFAN-95              
1 66037U 25233E   25317.84558002  .00001899  00000+0  78673-3 0  9997
2 66037  88.9956  65.3568 0016154 126.6684 233.5997 14.26175780  3925
QIANFAN-96              
1 66038U 25233F   25317.63651809  .00001193  00000+0  51864-3 0  9994
2 66038  88.9959  65.3807 0016565 127.8410 232.4284 14.23443906  3899
QIANFAN-97              
1 66039U 25233G   25317.84665721  .00001666  00000+0  72862-3 0  9992
2 66039  89.0031  65.2235 0031102 154.7004 205.5719 14.23127933  3926
QIANFAN-98              
1 66040U 25233H   25317.84478120  .00001570  00000+0  64903-3 0  9990
2 66040  88.9959  65.3570 0015960 126.7337 233.5325 14.26205996  3923
QIANFAN-99              
1 66041U 25233J   25317.63553089  .00001349  00000+0  58354-3 0  9993
2 66041  88.9957  65.3810 0016035 125.7733 234.4952 14.23759960  3896
QIANFAN-100             
1 66042U 25233K   25317.84438199  .00001575  00000+0  65068-3 0  9992
2 66042  88.9959  65.3570 0016562 127.3795 232.8909 14.26237015  3926
QIANFAN-101             
1 66043U 25233L   25317.83933367  .00000809  00000+0  32847-3 0  9997
2 66043  88.9960  65.3562 0016592 125.5554 234.7190 14.26646977  3920
QIANFAN-102             
1 66044U 25233M   25317.70424491  .00001590  00000+0  66816-3 0  9998
2 66044  88.9959  65.3734 0016999 127.8800 232.3934 14.25343314  3906
QIANFAN-103             
1 66045U 25233N   25317.63465481  .00001223  00000+0  52942-3 0  9993
2 66045  88.9950  65.3817 0016198 125.9071 234.3627 14.23689194  3896
